NUSAT-7 (SOPHIE)        
1 45017U 20003B   22106.13941700  .00015136  00000+0  46957-3 0  9997
2 45017  97.2213 169.3584 0011940 215.6356 173.9583 15.33419246125677
NUSAT-8 (MARIE)         
1 45018U 20003C   22106.12748957  .00013407  00000+0  38537-3 0  9990
2 45018  97.2347 170.6713 0010750 216.0149 200.1824 15.35872821125695
TIANQI-5                
1 45019U 20003D   22106.12910213  .00007362  00000+0  25003-3 0  9994
2 45019  97.2271 168.1017 0011118 230.9347 184.3295 15.30717354125559
YINHE-1                 
1 45024U 20004A   22106.04234219  .00000678  00000+0  95919-4 0  9994
2 45024  86.3919  77.7460 0012142 288.5534  71.4352 14.75454319121109
GSAT-30                 
1 45026U 20005A   22105.90535469 -.00000161  00000+0  00000+0 0  9992
2 45026   0.0543 102.4049 0004020 340.0300 170.5175  1.00270320  8242
EUTELSAT KONNECT        
1 45027U 20005B   22105.91438451  .00000053  00000+0  00000+0 0  9996
2 45027   0.0543  84.8252 0000085 278.0972 177.5098  1.00270811  9050
STPSAT-4                
1 45043U 98067QY  22106.14189838  .00048451  00000+0  45000-3 0  9992
2 45043  51.6386 255.2655 0005455 315.5812  44.4746 15.66920942125709
STARLINK-1132           
1 45044U 20006A   22105.91506250  .00000427  00000+0  47556-4 0  9996
2 45044  53.0546 178.2011 0001667  52.7331 307.3810 15.06410658122141
STARLINK-1120           
1 45045U 20006B   22105.57043221 -.00000289  00000+0 -50765-6 0  9999
2 45045  53.0545 199.7330 0001621  54.7800 305.3340 15.06400975121816
STARLINK-1129           
1 45046U 20006C   22105.69935927  .00017453  00000+0  10150-2 0  9995
2 45046  52.9958 190.6996 0001269  18.6039 341.4998 15.12159345121912
STARLINK-1131           
1 45047U 20006D   22105.57411378  .00001720  00000+0  13431-3 0  9998
2 45047  53.0545 199.7263 0001479  57.3810 302.7321 15.06404668121817
STARLINK-1134           
1 45048U 20006E   22105.58148254  .00004320  00000+0  30860-3 0  9994
2 45048  53.0535 199.6802 0001450  58.0035 302.1095 15.06418301121812
STARLINK-1135           
1 45049U 20006F   22105.74517902  .00010045  00000+0  65801-3 0  9997
2 45049  53.0547 198.5549 0001447 134.4694 225.6414 15.08287499121849
STARLINK-1140           
1 45050U 20006G   22105.72522917  .00003641  00000+0  26306-3 0  9990
2 45050  53.0532 199.0366 0001532  56.9494 303.1642 15.06420755121835
STARLINK-1141           
1 45051U 20006H   22105.54674445  .00018762  00000+0  11503-2 0  9997
2 45051  53.0525 197.9853 0001155  22.6835 337.4206 15.10194428121832
STARLINK-1148           
1 45052U 20006J   22105.73259453  .00010122  00000+0  69688-3 0  9997
2 45052  53.0532 199.0056 0001615  68.4061 291.7100 15.06428616121838
STARLINK-1155           
1 45053U 20006K   22105.56556902  .00020076  00000+0  12059-2 0  9996
2 45053  53.0007 194.4758 0001472  49.8435 310.2684 15.10896443121851
STARLINK-1156           
1 45054U 20006L   22105.59622523  .00005578  00000+0  39282-3 0  9991
2 45054  53.0534 199.6346 0001641  58.3902 301.7247 15.06423599121818
STARLINK-1159           
1 45057U 20006P   22105.74366418  .00005088  00000+0  36009-3 0  9999
2 45057  53.0538 198.9460 0001650  58.3193 301.7956 15.06411661121843
STARLINK-1162           
1 45058U 20006Q   22105.66993860  .00004262  00000+0  30470-3 0  9997
2 45058  53.0526 199.2853 0001648  57.7808 302.3340 15.06422089121833
STARLINK-1165           
1 45059U 20006R   22105.69206579 -.00000446  00000+0 -11007-4 0  9993
2 45059  53.0548 199.1993 0001596  60.0564 300.0583 15.06405288121836
STARLINK-1166           
1 45060U 20006S   22105.75471626  .00000555  00000+0  56117-4 0  9999
2 45060  53.0542 198.9128 0001829  43.4300 316.6833 15.06415563121840
STARLINK-1169           
1 45061U 20006T   22105.69574765  .00001070  00000+0  90725-4 0  9997
2 45061  53.0523 199.1856 0001592  54.3576 305.7561 15.06407435121839
STARLINK-1171           
1 45062U 20006U   22105.54831265  .00000442  00000+0  48587-4 0  9994
2 45062  53.0544 199.8337 0001557  60.7943 299.3202 15.06406674121816
STARLINK-1133           
1 45064U 20006W   22105.89294690  .00000527  00000+0  54242-4 0  9998
2 45064  53.0555 178.2941 0001443  57.5910 302.5218 15.06405229122140
STARLINK-1139           
1 45065U 20006X   22105.89663154  .00000073  00000+0  23807-4 0  9993
2 45065  53.0542 178.2810 0001645  59.2118 300.9033 15.06407778122143
STARLINK-1145           
1 45066U 20006Y   22105.60544785 -.00000739  00000+0 -30726-4 0  9990
2 45066  53.0531 179.5869 0001670  57.6102 302.5048 15.06405079122093
STARLINK-1150           
1 45067U 20006Z   22105.48749863  .00000024  00000+0  20540-4 0  9999
2 45067  53.0541 180.0972 0001644  62.5657 297.5499 15.06403401122087
STARLINK-1161           
1 45068U 20006AA  22105.92517263  .00005073  00000+0  35901-3 0  9991
2 45068  53.0563 177.9958 0001547  67.5466 292.5687 15.06421340122149
STARLINK-1167           
1 45071U 20006AD  22105.91874936  .00000337  00000+0  41491-4 0  9997
2 45071  53.0548 178.1849 0001569  59.4666 300.6478 15.06408817122147
STARLINK-1168           
1 45072U 20006AE  22105.72339780  .00002714  00000+0  20098-3 0  9990
2 45072  53.0542 179.0517 0001822  47.8081 312.3063 15.06411777122114
STARLINK-1170           
1 45073U 20006AF  22105.61650564 -.00000375  00000+0 -62843-5 0  9994
2 45073  53.0543 179.5221 0001835  48.5714 311.5433 15.06400303122090
STARLINK-1172           
1 45074U 20006AG  22105.60175329  .00003943  00000+0  28331-3 0  9999
2 45074  53.0521 179.6059 0001588  63.9614 296.1539 15.06419574122097
STARLINK-1174           
1 45075U 20006AH  22105.90031494  .00000735  00000+0  68228-4 0  9993
2 45075  53.0524 178.2541 0001614  56.3026 303.8117 15.06403943122142
STARLINK-1180           
1 45076U 20006AJ  22105.90769003 -.00003067  00000+0 -18709-3 0  9999
2 45076  53.0534 178.2235 0001521  54.8620 305.2511 15.06393951122145
STARLINK-1177           
1 45078U 20006AL  22105.92612303 -.00000058  00000+0  14990-4 0  9998
2 45078  53.0539 178.1532 0001923  48.5268 311.5886 15.06406452122130
STARLINK-1149           
1 45079U 20006AM  22105.90400975 -.00002425  00000+0 -14398-3 0  9999
2 45079  53.0532 178.2302 0001514  81.0140 279.1020 15.06397198122132
STARLINK-1153           
1 45080U 20006AN  22105.71233277  .00001158  00000+0  96605-4 0  9991
2 45080  53.0535 179.0984 0001803  47.5735 312.5406 15.06399102122115
STARLINK-1151           
1 45081U 20006AP  22105.88926061 -.00000061  00000+0  14774-4 0  9990
2 45081  53.0531 178.3153 0001648  53.5000 306.6140 15.06407440122148
STARLINK-1160           
1 45082U 20006AQ  22105.61280888  .00000341  00000+0  41798-4 0  9998
2 45082  53.0550 179.5457 0001937  46.4074 313.7075 15.06404639122090
STARLINK-1190           
1 45083U 20006AR  22105.77684416  .00005695  00000+0  40090-3 0  9991
2 45083  53.0544 198.8220 0001718  56.2658 303.8494 15.06398791121848
STARLINK-1173           
1 45084U 20006AS  22105.55937824  .00001411  00000+0  11359-3 0  9990
2 45084  53.0535 159.7913 0001765  54.7892 305.3262 15.06406522122370
STARLINK-1179           
1 45085U 20006AT  22105.55569443  .00000902  00000+0  79449-4 0  9998
2 45085  53.0553 159.7945 0001852  58.1687 301.9482 15.06401517122378
STARLINK-1181           
1 45086U 20006AU  22105.86076214  .00015902  00000+0  91575-3 0  9991
2 45086  52.9995 152.0350 0001931  19.8833 340.2233 15.12581099122391
STARLINK-1185           
1 45087U 20006AV  22105.87267040  .00004852  00000+0  34419-3 0  9998
2 45087  53.0530 158.3725 0001575  70.1489 289.9669 15.06422844122426
STARLINK-1183           
1 45088U 20006AW  22105.49671332  .00004354  00000+0  31097-3 0  9996
2 45088  53.0518 160.0743 0001635  57.0220 303.0926 15.06406267122365
STARLINK-1136           
1 45089U 20006AX  22105.42942455  .00001429  00000+0  11483-3 0  9994
2 45089  53.0572 160.3724 0001340  73.1726 286.9410 15.06402585122367
STARLINK-1176           
1 45090U 20006AY  22105.88004546 -.00000494  00000+0 -14235-4 0  9998
2 45090  53.0538 158.3486 0001517  68.7331 291.3820 15.06405682122424
STARLINK-1137           
1 45092U 20006BA  22105.85425118  .00002028  00000+0  15498-3 0  9993
2 45092  53.0531 158.4732 0001635  52.3673 307.7464 15.06405570122414
STARLINK-1142           
1 45093U 20006BB  22105.65152407  .00000241  00000+0  35050-4 0  9992
2 45093  53.0534 159.3779 0001635  61.2240 298.8913 15.06406946122381
STARLINK-1146           
1 45094U 20006BC  22105.86531367 -.00000626  00000+0 -23156-4 0  9995
2 45094  53.0526 158.4166 0001411  60.2400 299.8729 15.06402531122429
STARLINK-1147           
1 45095U 20006BD  22105.86899254 -.00000318  00000+0 -24617-5 0  9990
2 45095  53.0511 158.4027 0001629  56.8180 303.2965 15.06399508122428
STARLINK-1152           
1 45096U 20006BE  22105.86162117  .00004733  00000+0  33624-3 0  9991
2 45096  53.0513 158.4386 0001602  54.7759 305.3379 15.06417710122416
STARLINK-1184           
1 45098U 20006BG  22105.84319692 -.00001280  00000+0 -67022-4 0  9999
2 45098  53.0531 158.5199 0001505  70.9776 289.1376 15.06398731122419
STARLINK-1186           
1 45099U 20006BH  22105.87636541  .00002474  00000+0  18490-3 0  9996
2 45099  53.0546 158.3764 0001850  45.1208 314.9931 15.06409622122426
STARLINK-1193           
1 45100U 20006BJ  22105.83950373  .00000794  00000+0  72217-4 0  9998
2 45100  53.0543 158.5277 0001729  53.9940 306.1209 15.06406292122412
STARLINK-1194           
1 45101U 20006BK  22105.83581727  .00002067  00000+0  15762-3 0  9998
2 45101  53.0529 158.5341 0001795  57.8276 302.2887 15.06409697122418
STARLINK-1195           
1 45102U 20006BL  22105.85793184 -.00001457  00000+0 -78907-4 0  9998
2 45102  53.0514 158.4567 0001779  60.8689 299.2478 15.06403037122419
STARLINK-1196           
1 45103U 20006BM  22105.55842847  .00000955  00000+0  82965-4 0  9996
2 45103  53.0494 159.8462 0001694  64.8583 295.2582 15.06422021122370
